STARLINK-31859          
1 59848U 24097P   26068.53918534 -.00000828  00000+0 -20568-4 0  9990
2 59848  43.0029 268.2948 0001242 243.0157 117.0568 15.27571299101978
OTTER                   
1 62623U 25009Q   26068.72300813  .00012198  00000+0  45151-3 0  9990
2 62623  97.4065 151.3812 0003573 310.7710  49.3219 15.27809545 63722
